NAVSTAR 43 (USA 132)    
1 24876U 97035A   21244.18551913 -.00000020  00000-0  00000-0 0  9990
2 24876  55.4781 166.9589 0051691  53.5899 306.8930  2.00562439176851
NAVSTAR 47 (USA 150)    
1 26360U 00025A   21244.29986486 -.00000014  00000-0  00000-0 0  9995
2 26360  53.8295  90.8358 0054964 172.8411 356.6588  2.00566706156179
NAVSTAR 51 (USA 166)    
1 27663U 03005A   21242.83143316  .00000011  00000-0  00000-0 0  9994
2 27663  55.7184 284.5918 0120334  38.0648 130.6678  2.00555014136187
NAVSTAR 52 (USA 168)    
1 27704U 03010A   21242.82998736 -.00000066  00000-0  00000-0 0  9990
2 27704  54.8981  35.0946 0242270 297.1568  85.8708  2.00566934134985
NAVSTAR 53 (USA 175)    
1 28129U 03058A   21243.37804096 -.00000024  00000-0  00000-0 0  9994
2 28129  53.6390  93.5202 0069563 307.2886  52.1566  2.00554749129670
NAVSTAR 54 (USA 177)    
1 28190U 04009A   21243.11725346 -.00000096  00000-0  00000-0 0  9990
2 28190  56.1529 345.4845 0089642 111.0311  63.5600  2.00567056127821
NAVSTAR 56 (USA 180)    
1 28474U 04045A   21243.24838294 -.00000063  00000-0  00000-0 0  9990
2 28474  55.2312  35.1087 0204564 274.1073 267.7207  2.00555502123319
NAVSTAR 57 (USA 183)    
1 28874U 05038A   21243.08942869 -.00000095  00000-0  00000-0 0  9998
2 28874  56.2324 342.9045 0137470 270.5992 267.6253  2.00566496116711
NAVSTAR 58 (USA 190)    
1 29486U 06042A   21244.20950113  .00000055  00000-0  00000-0 0  9995
2 29486  54.7601 220.7847 0100761  15.1950 165.3347  2.00572033109292
NAVSTAR 59 (USA 192)    
1 29601U 06052A   21244.40540699  .00000028  00000-0  00000-0 0  9991
2 29601  55.7158 283.4578 0080150  69.9004 291.0310  2.00562287108311
NAVSTAR 60 (USA 196)    
1 32260U 07047A   21242.71403051 -.00000029  00000-0  00000-0 0  9995
2 32260  53.2453 152.5935 0133878  57.8892 303.4328  2.00563607101684
NAVSTAR 61 (USA 199)    
1 32384U 07062A   21240.04789979 -.00000101  00000-0  00000-0 0  9990
2 32384  56.3435 343.7487 0017975 137.3941 226.0883  2.00574220100339
NAVSTAR 62 (USA 201)    
1 32711U 08012A   21244.12639066  .00000054  00000-0  00000-0 0  9990
2 32711  54.5143 219.7889 0154418 228.2917 130.3686  2.00555516 98650
NAVSTAR 64 (USA 206)    
1 35752U 09043A   21243.36859911 -.00000022  00000-0  00000-0 0  9997
2 35752  54.8570  97.2287 0059079  54.8623 129.5216  2.00574714 88244
NAVSTAR 65 (USA 213)    
1 36585U 10022A   21243.68427375  .00000029  00000-0  00000-0 0  9997
2 36585  54.9932 279.2071 0096498  54.7620 120.5797  2.00574688 82482
NAVSTAR 66 (USA 232)    
1 37753U 11036A   21243.57298347 -.00000052  00000-0  00000-0 0  9991
2 37753  56.4606  40.0107 0108999  50.0094 127.0005  2.00563826 74165
NAVSTAR 67 (USA 239)    
1 38833U 12053A   21243.31018512  .00000050  00000-0  00000-0 0  9994
2 38833  53.5650 215.2446 0113110  42.2690 318.5834  2.00558300 64325
NAVSTAR 68 (USA 242)    
1 39166U 13023A   21242.67602167 -.00000095  00000-0  00000-0 0  9995
2 39166  55.8722 339.4064 0093252  35.2945 325.3522  2.00562104 60754
NAVSTAR 69 (USA 248)    
1 39533U 14008A   21244.17129913  .00000052  00000-0  00000-0 0  9999
2 39533  53.6661 220.6864 0054658 205.6655 154.0540  2.00565348 54581
NAVSTAR 70 (USA 251)    
1 39741U 14026A   21243.95144788 -.00000051  00000-0  00000-0 0  9992
2 39741  56.4282  39.5232 0023492 299.8060  59.9819  2.00576662 53431
NAVSTAR 71 (USA 256)    
1 40105U 14045A   21242.54416864 -.00000022  00000-0  00000-0 0  9998
2 40105  54.6364 158.4205 0018651 105.4653 254.7630  2.00558005 50940
NAVSTAR 72 (USA 258)    
1 40294U 14068A   21242.41172670 -.00000029  00000-0  00000-0 0  9999
2 40294  55.6026  99.4513 0036610  53.0825 307.3318  2.00551189 50073
NAVSTAR 73 (USA 260)    
1 40534U 15013A   21244.04723663  .00000034  00000-0  00000-0 0  9997
2 40534  53.8984 276.6790 0059820  14.7147 345.5230  2.00570143 46723
NAVSTAR 74 (USA 262)    
1 40730U 15033A   21243.20951649 -.00000092  00000-0  00000-0 0  9996
2 40730  55.3777 338.3515 0064236   1.2464 358.8048  2.00567188 44872
NAVSTAR 75 (USA 265)    
1 41019U 15062A   21239.27108292 -.00000035  00000-0  00000+0 0  9995
2 41019  55.5922  99.4129 0069784 213.5469 146.0894  2.00563526 42639
NAVSTAR 76 (USA 266)    
1 41328U 16007A   21242.85235197 -.00000023  00000-0  00000-0 0  9999
2 41328  54.8617 159.0068 0052409 226.0382 133.5500  2.00558994 40714
NAVSTAR 77 (USA 289)    
1 43873U 18109A   21243.62572785 -.00000023  00000-0  00000-0 0  9994
2 43873  55.0433 161.3342 0014023 195.7351 254.9495  2.00560190 19964
NAVSTAR 78 (USA 293)    
1 44506U 19056A   21244.33427406 -.00000050  00000-0  00000-0 0  9998
2 44506  55.5291  40.5709 0018477 174.8225 328.0749  2.00566992 14972
NAVSTAR 79 (USA 304)    
1 45854U 20041A   21243.67294813 -.00000018  00000-0  00000-0 0  9995
2 45854  55.3095  97.8644 0015173 159.9508 167.9668  2.00564454  8929
NAVSTAR 80 (USA 309)    
1 46826U 20078A   21241.25743814 -.00000003  00000-0  00000-0 0  9991
2 46826  54.7698 281.9431 0010738 188.9676 163.7043  2.00566840  6347
